{"epoch":1784710044,"count":18256,"objects":[{"id":"49313","name":"ONEWEB-0387","type":"PAYLOAD","l1":"1 49313U 21090AL  26202.45825476  .00000053  00000-0  97198-4 0  9991","l2":"2 49313  87.9167 267.6206 0001861  87.9509 272.1837 13.20771547234346"},{"id":"49314","name":"ONEWEB-0388","type":"PAYLOAD","l1":"1 49314U 21090AM  26202.52539408  .00000063  00000-0  12455-3 0  9990","l2":"2 49314  87.9183 298.1324 0001901 100.5017 259.6330 13.19724697230948"},{"id":"50469","name":"ONEWEB-0389","type":"PAYLOAD","l1":"1 50469U 21132A   26202.44592023  .00000082  00000-0  17703-3 0  9995","l2":"2 50469  87.9154 359.0529 0001616  84.0720 276.0596 13.17647939222593"},{"id":"50470","name":"ONEWEB-0390","type":"PAYLOAD","l1":"1 50470U 21132B   26202.37167185  .00000063  00000-0  12931-3 0  9993","l2":"2 50470  87.9151 359.0690 0002078  90.0869 270.0501 13.17648329222588"},{"id":"50471","name":"ONEWEB-0391","type":"PAYLOAD","l1":"1 50471U 21132C   26202.37335840  .00000089  00000-0  19577-3 0  9990","l2":"2 50471  87.9155 359.0785 0001775  68.0456 292.0864 13.17648001222581"},{"id":"50472","name":"ONEWEB-0392","type":"PAYLOAD","l1":"1 50472U 21132D   26202.40373590  .00000043  00000-0  76843-4 0  9999","l2":"2 50472  87.9161 359.0436 0001654  83.1236 277.0084 13.17647841222625"},{"id":"50473","name":"ONEWEB-0393","type":"PAYLOAD","l1":"1 50473U 21132E   26202.37928341  .00000078  00000-0  16677-3 0  9992","l2":"2 50473  87.9153 359.0625 0001743  90.0379 270.0953 13.17648114222612"},{"id":"50474","name":"ONEWEB-0394","type":"PAYLOAD","l1":"1 50474U 21132F   26202.62192178  .00000087  00000-0  18874-3 0  9993","l2":"2 50474  87.9201 328.5965 0001771  99.9951 260.1381 13.18686037226133"},{"id":"50475","name":"ONEWEB-0395","type":"PAYLOAD","l1":"1 50475U 21132G   26202.42427783 -.00000457  00000-0 -13258-2 0  9998","l2":"2 50475  87.8887  14.2487 0001934  84.8800 275.2549 13.11417209220209"},{"id":"50476","name":"ONEWEB-0396","type":"PAYLOAD","l1":"1 50476U 21132H   26202.61517949  .00000005  00000-0 -20343-4 0  9997","l2":"2 50476  87.9203 328.6108 0001719  98.2835 261.8492 13.18686021226170"},{"id":"50477","name":"ONEWEB-0397","type":"PAYLOAD","l1":"1 50477U 21132J   26202.63034807 -.00000054  00000-0 -16936-3 0  9994","l2":"2 50477  87.9203 328.6080 0001646 101.3405 258.7912 13.18686713226156"},{"id":"50478","name":"ONEWEB-0398","type":"PAYLOAD","l1":"1 50478U 21132K   26202.01060477  .00000481  00000-0  13224-2 0  9997","l2":"2 50478  87.8896  14.3246 0002110  87.5422 272.5948 13.11416209220047"},{"id":"50479","name":"ONEWEB-0399","type":"PAYLOAD","l1":"1 50479U 21132L   26202.45481953  .00000382  00000-0  10426-2 0  9993","l2":"2 50479  87.8893  14.2473 0001419  82.8140 277.3149 13.11418755220091"},{"id":"50480","name":"ONEWEB-0400","type":"PAYLOAD","l1":"1 50480U 21132M   26202.30492623  .00000092  00000-0  20144-3 0  9992","l2":"2 50480  87.9203 328.6624 0002032  96.4832 263.6531 13.18685846226105"},{"id":"50481","name":"ONEWEB-0401","type":"PAYLOAD","l1":"1 50481U 21132N   26202.57808366 -.00000231  00000-0 -61865-3 0  9999","l2":"2 50481  87.9204 328.6056 0001889 105.5871 254.5470 13.18688122226145"},{"id":"50482","name":"ONEWEB-0402","type":"PAYLOAD","l1":"1 50482U 21132P   26202.31335207  .00000066  00000-0  13446-3 0  9997","l2":"2 50482  87.9203 328.6469 0001696 112.5405 247.5907 13.18684435226139"}]}