{"fetched_at":"2026-07-22T07:09:22.096Z","source":"https://celestrak.org/NORAD/elements/gp.php?GROUP=oneweb&FORMAT=JSON","constellation":"oneweb","records":[{"OBJECT_NAME":"ONEWEB-0387","OBJECT_ID":"2021-090AL","EPOCH":"2026-07-21T10:59:53.211264","CLASSIFICATION_TYPE":"U","MEAN_MOTION":13.20771547,"ECCENTRICITY":0.0001861,"INCLINATION":87.9167,"RA_OF_ASC_NODE":267.6206,"ARG_OF_PERICENTER":87.9509,"MEAN_ANOMALY":272.1837,"EPHEMERIS_TYPE":0,"NORAD_CAT_ID":49313,"ELEMENT_SET_NO":999,"REV_AT_EPOCH":23434,"BSTAR":0.000097197572,"MEAN_MOTION_DOT":5.3e-7,"MEAN_MOTION_DDOT":0},{"OBJECT_NAME":"ONEWEB-0388","OBJECT_ID":"2021-090AM","EPOCH":"2026-07-21T12:36:34.048512","CLASSIFICATION_TYPE":"U","MEAN_MOTION":13.19724697,"ECCENTRICITY":0.00019009,"INCLINATION":87.9183,"RA_OF_ASC_NODE":298.1324,"ARG_OF_PERICENTER":100.5017,"MEAN_ANOMALY":259.633,"EPHEMERIS_TYPE":0,"NORAD_CAT_ID":49314,"ELEMENT_SET_NO":999,"REV_AT_EPOCH":23094,"BSTAR":0.00012454678,"MEAN_MOTION_DOT":6.3e-7,"MEAN_MOTION_DDOT":0},{"OBJECT_NAME":"ONEWEB-0389","OBJECT_ID":"2021-132A","EPOCH":"2026-07-21T10:42:07.507872","CLASSIFICATION_TYPE":"U","MEAN_MOTION":13.17647939,"ECCENTRICITY":0.00016161,"INCLINATION":87.9154,"RA_OF_ASC_NODE":359.0529,"ARG_OF_PERICENTER":84.072,"MEAN_ANOMALY":276.0596,"EPHEMERIS_TYPE":0,"NORAD_CAT_ID":50469,"ELEMENT_SET_NO":999,"REV_AT_EPOCH":22259,"BSTAR":0.00017703233,"MEAN_MOTION_DOT":8.2e-7,"MEAN_MOTION_DDOT":0},{"OBJECT_NAME":"ONEWEB-0390","OBJECT_ID":"2021-132B","EPOCH":"2026-07-21T08:55:12.447840","CLASSIFICATION_TYPE":"U","MEAN_MOTION":13.17648329,"ECCENTRICITY":0.00020777,"INCLINATION":87.9151,"RA_OF_ASC_NODE":359.069,"ARG_OF_PERICENTER":90.0869,"MEAN_ANOMALY":270.0501,"EPHEMERIS_TYPE":0,"NORAD_CAT_ID":50470,"ELEMENT_SET_NO":999,"REV_AT_EPOCH":22258,"BSTAR":0.00012931183,"MEAN_MOTION_DOT":6.3e-7,"MEAN_MOTION_DDOT":0},{"OBJECT_NAME":"ONEWEB-0391","OBJECT_ID":"2021-132C","EPOCH":"2026-07-21T08:57:38.165760","CLASSIFICATION_TYPE":"U","MEAN_MOTION":13.17648001,"ECCENTRICITY":0.00017752,"INCLINATION":87.9155,"RA_OF_ASC_NODE":359.0785,"ARG_OF_PERICENTER":68.0456,"MEAN_ANOMALY":292.0864,"EPHEMERIS_TYPE":0,"NORAD_CAT_ID":50471,"ELEMENT_SET_NO":999,"REV_AT_EPOCH":22258,"BSTAR":0.00019577076,"MEAN_MOTION_DOT":8.9e-7,"MEAN_MOTION_DDOT":0},{"OBJECT_NAME":"ONEWEB-0392","OBJECT_ID":"2021-132D","EPOCH":"2026-07-21T09:41:22.781760","CLASSIFICATION_TYPE":"U","MEAN_MOTION":13.17647841,"ECCENTRICITY":0.00016545,"INCLINATION":87.9161,"RA_OF_ASC_NODE":359.0436,"ARG_OF_PERICENTER":83.1236,"MEAN_ANOMALY":277.0084,"EPHEMERIS_TYPE":0,"NORAD_CAT_ID":50472,"ELEMENT_SET_NO":999,"REV_AT_EPOCH":22262,"BSTAR":0.000076843415,"MEAN_MOTION_DOT":4.3e-7,"MEAN_MOTION_DDOT":0},{"OBJECT_NAME":"ONEWEB-0393","OBJECT_ID":"2021-132E","EPOCH":"2026-07-21T09:06:10.086624","CLASSIFICATION_TYPE":"U","MEAN_MOTION":13.17648114,"ECCENTRICITY":0.00017431,"INCLINATION":87.9153,"RA_OF_ASC_NODE":359.0625,"ARG_OF_PERICENTER":90.0379,"MEAN_ANOMALY":270.0953,"EPHEMERIS_TYPE":0,"NORAD_CAT_ID":50473,"ELEMENT_SET_NO":999,"REV_AT_EPOCH":22261,"BSTAR":0.00016676682,"MEAN_MOTION_DOT":7.8e-7,"MEAN_MOTION_DDOT":0},{"OBJECT_NAME":"ONEWEB-0394","OBJECT_ID":"2021-132F","EPOCH":"2026-07-21T14:55:34.041792","CLASSIFICATION_TYPE":"U","MEAN_MOTION":13.18686037,"ECCENTRICITY":0.00017712,"INCLINATION":87.9201,"RA_OF_ASC_NODE":328.5965,"ARG_OF_PERICENTER":99.9951,"MEAN_ANOMALY":260.1381,"EPHEMERIS_TYPE":0,"NORAD_CAT_ID":50474,"ELEMENT_SET_NO":999,"REV_AT_EPOCH":22613,"BSTAR":0.00018873918,"MEAN_MOTION_DOT":8.7e-7,"MEAN_MOTION_DDOT":0},{"OBJECT_NAME":"ONEWEB-0395","OBJECT_ID":"2021-132G","EPOCH":"2026-07-21T10:10:57.604512","CLASSIFICATION_TYPE":"U","MEAN_MOTION":13.11417209,"ECCENTRICITY":0.00019335,"INCLINATION":87.8887,"RA_OF_ASC_NODE":14.2487,"ARG_OF_PERICENTER":84.88,"MEAN_ANOMALY":275.2549,"EPHEMERIS_TYPE":0,"NORAD_CAT_ID":50475,"ELEMENT_SET_NO":999,"REV_AT_EPOCH":22020,"BSTAR":-0.0013257835,"MEAN_MOTION_DOT":-0.00000457,"MEAN_MOTION_DDOT":0},{"OBJECT_NAME":"ONEWEB-0396","OBJECT_ID":"2021-132H","EPOCH":"2026-07-21T14:45:51.507936","CLASSIFICATION_TYPE":"U","MEAN_MOTION":13.18686021,"ECCENTRICITY":0.00017192,"INCLINATION":87.9203,"RA_OF_ASC_NODE":328.6108,"ARG_OF_PERICENTER":98.2835,"MEAN_ANOMALY":261.8492,"EPHEMERIS_TYPE":0,"NORAD_CAT_ID":50476,"ELEMENT_SET_NO":999,"REV_AT_EPOCH":22617,"BSTAR":-0.000020343305,"MEAN_MOTION_DOT":5e-8,"MEAN_MOTION_DDOT":0},{"OBJECT_NAME":"ONEWEB-0397","OBJECT_ID":"2021-132J","EPOCH":"2026-07-21T15:07:42.073248","CLASSIFICATION_TYPE":"U","MEAN_MOTION":13.18686713,"ECCENTRICITY":0.00016459,"INCLINATION":87.9203,"RA_OF_ASC_NODE":328.608,"ARG_OF_PERICENTER":101.3405,"MEAN_ANOMALY":258.7912,"EPHEMERIS_TYPE":0,"NORAD_CAT_ID":50477,"ELEMENT_SET_NO":999,"REV_AT_EPOCH":22615,"BSTAR":-0.00016936112,"MEAN_MOTION_DOT":-5.4e-7,"MEAN_MOTION_DDOT":0},{"OBJECT_NAME":"ONEWEB-0398","OBJECT_ID":"2021-132K","EPOCH":"2026-07-21T00:15:16.252128","CLASSIFICATION_TYPE":"U","MEAN_MOTION":13.11416209,"ECCENTRICITY":0.00021105,"INCLINATION":87.8896,"RA_OF_ASC_NODE":14.3246,"ARG_OF_PERICENTER":87.5422,"MEAN_ANOMALY":272.5948,"EPHEMERIS_TYPE":0,"NORAD_CAT_ID":50478,"ELEMENT_SET_NO":999,"REV_AT_EPOCH":22004,"BSTAR":0.0013223591,"MEAN_MOTION_DOT":0.00000481,"MEAN_MOTION_DDOT":0},{"OBJECT_NAME":"ONEWEB-0399","OBJECT_ID":"2021-132L","EPOCH":"2026-07-21T10:54:56.407392","CLASSIFICATION_TYPE":"U","MEAN_MOTION":13.11418755,"ECCENTRICITY":0.00014186,"INCLINATION":87.8893,"RA_OF_ASC_NODE":14.2473,"ARG_OF_PERICENTER":82.814,"MEAN_ANOMALY":277.3149,"EPHEMERIS_TYPE":0,"NORAD_CAT_ID":50479,"ELEMENT_SET_NO":999,"REV_AT_EPOCH":22009,"BSTAR":0.0010425746,"MEAN_MOTION_DOT":0.00000382,"MEAN_MOTION_DDOT":0},{"OBJECT_NAME":"ONEWEB-0400","OBJECT_ID":"2021-132M","EPOCH":"2026-07-21T07:19:05.626272","CLASSIFICATION_TYPE":"U","MEAN_MOTION":13.18685846,"ECCENTRICITY":0.00020321,"INCLINATION":87.9203,"RA_OF_ASC_NODE":328.6624,"ARG_OF_PERICENTER":96.4832,"MEAN_ANOMALY":263.6531,"EPHEMERIS_TYPE":0,"NORAD_CAT_ID":50480,"ELEMENT_SET_NO":999,"REV_AT_EPOCH":22610,"BSTAR":0.00020143551,"MEAN_MOTION_DOT":9.2e-7,"MEAN_MOTION_DDOT":0},{"OBJECT_NAME":"ONEWEB-0401","OBJECT_ID":"2021-132N","EPOCH":"2026-07-21T13:52:26.428224","CLASSIFICATION_TYPE":"U","MEAN_MOTION":13.18688122,"ECCENTRICITY":0.00018887,"INCLINATION":87.9204,"RA_OF_ASC_NODE":328.6056,"ARG_OF_PERICENTER":105.5871,"MEAN_ANOMALY":254.547,"EPHEMERIS_TYPE":0,"NORAD_CAT_ID":50481,"ELEMENT_SET_NO":999,"REV_AT_EPOCH":22614,"BSTAR":-0.00061865428,"MEAN_MOTION_DOT":-0.00000231,"MEAN_MOTION_DDOT":0},{"OBJECT_NAME":"ONEWEB-0402","OBJECT_ID":"2021-132P","EPOCH":"2026-07-21T07:31:13.618848","CLASSIFICATION_TYPE":"U","MEAN_MOTION":13.18684435,"ECCENTRICITY":0.00016964,"INCLINATION":87.9203,"RA_OF_ASC_NODE":328.6469,"ARG_OF_PERICENTER":112.5405,"MEAN_ANOMALY":247.5907,"EPHEMERIS_TYPE":0,"NORAD_CAT_ID":50482,"ELEMENT_SET_NO":999,"REV_AT_EPOCH":22613,"BSTAR":0.00013445903,"MEAN_MOTION_DOT":6.6e-7,"MEAN_MOTION_DDOT":0}]}
